[{"OBJECT_NAME":"FENGYUN 3F","OBJECT_ID":"2023-111A","EPOCH":"2026-03-09T23:16:34.953600","MEAN_MOTION":14.19919562,"ECCENTRICITY":0.00012463,"INCLINATION":98.6928,"RA_OF_ASC_NODE":140.7948,"ARG_OF_PERICENTER":79.4466,"MEAN_ANOMALY":280.6851,"EPHEMERIS_TYPE":0,"CLASSIFICATION_TYPE":"U","NORAD_CAT_ID":57490,"ELEMENT_SET_NO":999,"REV_AT_EPOCH":13478,"BSTAR":6.0252393e-5,"MEAN_MOTION_DOT":8.4e-7,"MEAN_MOTION_DDOT":0},{"OBJECT_NAME":"METEOR 1-24","OBJECT_ID":"1976-032A","EPOCH":"2026-03-09T17:39:02.746944","MEAN_MOTION":14.11892727,"ECCENTRICITY":0.00350831,"INCLINATION":81.2582,"RA_OF_ASC_NODE":325.254,"ARG_OF_PERICENTER":135.3514,"MEAN_ANOMALY":225.0493,"EPHEMERIS_TYPE":0,"CLASSIFICATION_TYPE":"U","NORAD_CAT_ID":8799,"ELEMENT_SET_NO":999,"REV_AT_EPOCH":56994,"BSTAR":5.3510388e-5,"MEAN_MOTION_DOT":1.11e-6,"MEAN_MOTION_DDOT":0}]
